0 FENGYUN 1C DEB
1 37026U 99025EDJ 13281.26587803  .00001690  00000-0  79452-3 0  1579
2 37026 098.9026 289.6955 0061624 070.9309 289.9350 14.20371842245127
0 FENGYUN 1C DEB
1 37026U 99025EDJ 13284.22447347  .00001764  00000-0  82862-3 0  1588
2 37026 098.9012 292.6683 0060820 062.4996 298.2922 14.20384501245549
0 FENGYUN 1C DEB
1 37026U 99025EDJ 13286.26729014  .00001797  00000-0  84374-3 0  1595
2 37026 098.9020 294.7326 0060848 056.9363 303.7710 14.20393091245834
0 FENGYUN 1C DEB
1 37026U 99025EDJ 13288.23966653  .00001915  00000-0  89677-3 0  1601
2 37026 098.9000 296.7135 0062207 047.9575 312.7344 14.20403747246113
0 FENGYUN 1C DEB
1 37026U 99025EDJ 13290.84598899  .00001970  00000-0  92094-3 0  1613
2 37026 098.9034 299.3449 0063472 042.7159 317.9253 14.20415626246488
0 FENGYUN 1C DEB
1 37026U 99025EDJ 13291.83215569  .00002032  00000-0  94887-3 0  1626
2 37026 098.9104 300.3603 0064304 043.8720 316.8193 14.20421680246626
